EUTELSAT 8 WEST B       
1 40875U 15039B   25312.10162219 -.00000062  00000+0  00000+0 0  9994
2 40875   0.0684 355.2156 0003968 235.8701 205.0534  1.00271789 37445
EUTELSAT 9B             
1 41310U 16005A   25312.10500220  .00000065  00000+0  00000+0 0  9993
2 41310   0.0778  76.5719 0004552 176.2187 201.5786  1.00272584 35901
EUTELSAT 65 WEST A      
1 41382U 16014A   25312.13716663 -.00000273  00000+0  00000+0 0  9997
2 41382   0.0909  55.5066 0002717 184.1370 152.1442  1.00272101 35311
EUTELSAT 117 WEST B     
1 41589U 16038B   25312.06960176 -.00000008  00000+0  00000+0 0  9990
2 41589   0.0196 117.3719 0000484 320.6923 237.5322  1.00270635 34448
EUTELSAT 172B           
1 42741U 17029B   25312.13732904 -.00000002  00000+0  00000+0 0  9990
2 42741   0.0299 150.6812 0000215 127.4804 350.8779  1.00271583 31513
EUTELSAT 7C             
1 44334U 19034B   25312.10465552  .00000052  00000+0  00000+0 0  9991
2 44334   0.0686 183.2754 0003346  29.2878 239.6786  1.00270954  4612
EUTELSAT 5 WEST B       
1 44624U 19067A   25312.10222884 -.00000039  00000+0  00000+0 0  9994
2 44624   0.0691 339.0237 0003540 252.7344 207.6196  1.00270115 22220
EUTELSAT KONNECT        
1 45027U 20005B   25310.03557160  .00000059  00000+0  00000+0 0  9995
2 45027   0.0664  90.5123 0001447 184.0203 150.9894  1.00268266 22089
